NORAD_CAT_ID,OBJECT_NAME,OBJECT_TYPE,EPOCH,MEAN_MOTION,ECCENTRICITY,INCLINATION,RA_OF_ASC_NODE,ARG_OF_PERICENTER,MEAN_ANOMALY,BSTAR,MEAN_MOTION_DOT,MEAN_MOTION_DDOT,TLE_LINE0,TLE_LINE1,TLE_LINE2,SEMIMAJOR_AXIS,PERIOD,APOGEE,PERIGEE,DECAYED
55404.0,STARLINK-5607,PAYLOAD,2024-01-04 20:27:35,14.98329663,0.0002601,69.9994,268.6385,257.7642,102.3226,-6.2653e-06,-1.68e-06,0.0,0 STARLINK-5607,1 55404U 23014P   24004.85249209 -.00000168  00000-0 -62653-5 0  9991,2 55404  69.9994 268.6385 0002601 257.7642 102.3226 14.98329663 52998,6950.194,96.107,573.867,570.251,0.0
55404.0,STARLINK-5607,PAYLOAD,2024-01-05 02:52:07,14.98329432,0.0002603,69.9993,267.9651,258.2144,101.8723,-7.7082e-06,-1.85e-06,0.0,0 STARLINK-5607,1 55404U 23014P   24005.11953231 -.00000185  00000-0 -77082-5 0  9999,2 55404  69.9993 267.9651 0002603 258.2144 101.8723 14.98329432 52091,6950.195,96.107,573.869,570.251,0.0
55404.0,STARLINK-5607,PAYLOAD,2024-01-05 22:05:44,14.98326942,0.0002644,69.999,265.9448,259.5973,100.4888,8.0473e-06,3e-08,0.0,0 STARLINK-5607,1 55404U 23014P   24005.92065404  .00000003  00000-0  80473-5 0  9999,2 55404  69.9990 265.9448 0002644 259.5973 100.4888 14.98326942 53157,6950.202,96.107,573.905,570.23,0.0
55404.0,STARLINK-5607,PAYLOAD,2024-01-06 02:54:08,14.98328324,0.0002814,69.9985,265.439,267.988,92.0956,5.7351e-08,-9.2e-07,0.0,0 STARLINK-5607,1 55404U 23014P   24006.12093342 -.00000092  00000-0  57351-7 0  9994,2 55404  69.9985 265.4390 0002814 267.9880  92.0956 14.98328324 52248,6950.198,96.107,574.019,570.107,0.0
55404.0,STARLINK-5607,PAYLOAD,2024-01-06 22:07:45,14.98327384,0.0002655,69.9985,263.4184,265.5544,94.5312,2.0265e-05,1.49e-06,0.0,0 STARLINK-5607,1 55404U 23014P   24006.92205382  .00000149  00000-0  20265-4 0  9994,2 55404  69.9985 263.4184 0002655 265.5544  94.5312 14.98327384 53307,6950.201,96.107,573.911,570.221,0.0
55404.0,STARLINK-5607,PAYLOAD,2024-01-07 02:56:09,14.98330066,0.0002791,69.9982,262.913,270.501,89.5829,4.4724e-05,4.41e-06,0.0,0 STARLINK-5607,1 55404U 23014P   24007.12233163  .00000441  00000-0  44724-4 0  9996,2 55404  69.9982 262.9130 0002791 270.5010  89.5829 14.98330066 52390,6950.193,96.107,573.997,570.118,0.0
55404.0,STARLINK-5607,PAYLOAD,2024-01-07 20:33:38,14.98329851,0.0002594,69.9986,261.0621,260.9307,99.1559,1.8841e-05,1.32e-06,0.0,0 STARLINK-5607,1 55404U 23014P   24007.85669225  .00000132  00000-0  18841-4 0  9996,2 55404  69.9986 261.0621 0002594 260.9307  99.1559 14.98329851 53446,6950.193,96.107,573.861,570.255,0.0
55404.0,STARLINK-5607,PAYLOAD,2024-01-08 02:58:10,14.98331513,0.000274,69.9982,260.3882,267.8362,92.2484,3.7096e-05,3.5e-06,0.0,0 STARLINK-5607,1 55404U 23014P   24008.12373090  .00000350  00000-0  37096-4 0  9994,2 55404  69.9982 260.3882 0002740 267.8362  92.2484 14.98331513 52542,6950.188,96.107,573.958,570.149,0.0
55404.0,STARLINK-5607,PAYLOAD,2024-01-08 18:59:34,14.98289704,0.0003381,69.9985,258.7059,276.0662,84.0112,-0.00041903,-5.084e-05,0.0,0 STARLINK-5607,1 55404U 23014P   24008.79136975 -.00005084  00000-0 -41903-3 0  9998,2 55404  69.9985 258.7059 0003381 276.0662  84.0112 14.98289704 52641,6950.318,96.11,574.532,569.833,0.0
55404.0,STARLINK-5607,PAYLOAD,2024-01-08 22:11:50,14.98291633,0.0003013,69.9981,258.3686,263.3371,96.7445,-0.00039948,-4.852e-05,0.0,0 STARLINK-5607,1 55404U 23014P   24008.92489016 -.00004852  00000-0 -39948-3 0  9998,2 55404  69.9981 258.3686 0003013 263.3371  96.7445 14.98291633 53607,6950.312,96.109,574.271,570.082,0.0
55404.0,STARLINK-5607,PAYLOAD,2024-01-09 03:00:13,14.98300851,0.0002973,69.9996,257.8685,256.0223,104.0605,-6.6266e-05,-8.83e-06,0.0,0 STARLINK-5607,1 55404U 23014P   24009.12516000 -.00000883  00000-0 -66266-4 0  9999,2 55404  69.9996 257.8685 0002973 256.0223 104.0605 14.98300851 52697,6950.283,96.109,574.214,570.082,0.0
55404.0,STARLINK-5607,PAYLOAD,2024-01-09 19:01:33,14.98325234,0.0003191,69.9975,256.1806,269.7721,90.3073,-3.6934e-05,-5.34e-06,0.0,0 STARLINK-5607,1 55404U 23014P   24009.79274727 -.00000534  00000-0 -36934-4 0  9991,2 55404  69.9975 256.1806 0003191 269.7721  90.3073 14.98325234 52797,6950.208,96.107,574.29,569.855,0.0
55404.0,STARLINK-5607,PAYLOAD,2024-01-09 22:13:49,14.98325721,0.0003092,69.9978,255.8434,267.9121,92.1684,-1.755e-05,-3.02e-06,0.0,0 STARLINK-5607,1 55404U 23014P   24009.92626691 -.00000302  00000-0 -17550-4 0  9993,2 55404  69.9978 255.8434 0003092 267.9121  92.1684 14.98325721 53753,6950.206,96.107,574.22,569.922,0.0
55404.0,STARLINK-5607,PAYLOAD,2024-01-10 03:02:13,14.98328354,0.0002603,69.9984,255.3383,262.4048,97.6816,5.7436e-05,5.92e-06,0.0,0 STARLINK-5607,1 55404U 23014P   24010.12654404  .00000592  00000-0  57436-4 0  9996,2 55404  69.9984 255.3383 0002603 262.4048  97.6816 14.98328354 53788,6950.198,96.107,573.872,570.254,0.0
55404.0,STARLINK-5607,PAYLOAD,2024-01-10 19:03:33,14.98312359,0.0003183,69.9976,253.6545,269.7807,90.2987,0.00057423,6.762e-05,0.0,0 STARLINK-5607,1 55404U 23014P   24010.79413663  .00006762  00000-0  57423-3 0  9999,2 55404  69.9976 253.6545 0003183 269.7807  90.2987 14.98312359 52940,6950.247,96.108,574.325,569.9,0.0
55404.0,STARLINK-5607,PAYLOAD,2024-01-11 01:28:05,14.98327597,0.0003471,69.9977,252.9814,274.1846,85.8916,0.00053903,6.344e-05,0.0,0 STARLINK-5607,1 55404U 23014P   24011.06116916  .00006344  00000-0  53903-3 0  9996,2 55404  69.9977 252.9814 0003471 274.1846  85.8916 14.98327597 52981,6950.2,96.107,574.478,569.653,0.0
55404.0,STARLINK-5607,PAYLOAD,2024-01-11 19:05:34,14.98335133,0.0002802,69.999,251.1313,264.1567,95.9273,2.7658e-05,2.37e-06,0.0,0 STARLINK-5607,1 55404U 23014P   24011.79553639  .00000237  00000-0  27658-4 0  9997,2 55404  69.9990 251.1313 0002802 264.1567  95.9273 14.98335133 53093,6950.177,96.107,573.989,570.095,0.0
55404.0,STARLINK-5607,PAYLOAD,2024-01-11 22:17:50,14.98336616,0.0003237,69.9974,250.7927,270.8119,89.2669,-2.4667e-06,-1.23e-06,0.0,0 STARLINK-5607,1 55404U 23014P   24011.92905516 -.00000123  00000-0 -24667-5 0  9991,2 55404  69.9974 250.7927 0003237 270.8119  89.2669 14.98336616 54050,6950.172,96.107,574.287,569.788,0.0
55404.0,STARLINK-5607,PAYLOAD,2024-01-12 01:30:06,14.98335404,0.0002863,69.9984,250.4569,266.1315,93.9517,9.491e-06,2e-07,0.0,0 STARLINK-5607,1 55404U 23014P   24012.06257526  .00000020  00000-0  94910-5 0  9990,2 55404  69.9984 250.4569 0002863 266.1315  93.9517 14.98335404 54070,6950.176,96.107,574.031,570.051,0.0
55404.0,STARLINK-5607,PAYLOAD,2024-01-12 19:07:34,14.98346502,0.0002926,69.9983,248.604,265.6027,94.4797,-3.6638e-05,-5.3e-06,0.0,0 STARLINK-5607,1 55404U 23014P   24012.79692327 -.00000530  00000-0 -36638-4 0  9992,2 55404  69.9983 248.6040 0002926 265.6027  94.4797 14.98346502 53241,6950.142,96.106,574.04,569.973,0.0
55404.0,STARLINK-5607,PAYLOAD,2024-01-12 22:19:50,14.9834606,0.0002855,69.9984,248.2672,263.3167,96.7667,-1.5225e-05,-2.75e-06,0.0,0 STARLINK-5607,1 55404U 23014P   24012.93044151 -.00000275  00000-0 -15225-4 0  9999,2 55404  69.9984 248.2672 0002855 263.3167  96.7667 14.98346060 54207,6950.143,96.106,573.992,570.024,0.0
55404.0,STARLINK-5607,PAYLOAD,2024-01-13 01:32:05,14.98350326,0.0002914,69.9984,247.9312,266.2308,93.8518,4.5706e-05,4.53e-06,0.0,0 STARLINK-5607,1 55404U 23014P   24013.06395548  .00000453  00000-0  45706-4 0  9996,2 55404  69.9984 247.9312 0002914 266.2308  93.8518 14.98350326 54224,6950.13,96.106,574.02,569.97,0.0
55404.0,STARLINK-5607,PAYLOAD,2024-01-13 19:09:38,14.98294615,0.0003688,69.9982,246.0794,283.4429,76.6319,-0.00041873,-5.081e-05,0.0,0 STARLINK-5607,1 55404U 23014P   24013.79836304 -.00005081  00000-0 -41873-3 0  9990,2 55404  69.9982 246.0794 0003688 283.4429  76.6319 14.98294615 53393,6950.302,96.109,574.731,569.604,0.0
55404.0,STARLINK-5607,PAYLOAD,2024-01-14 14:23:14,14.98314771,0.0004173,69.9959,244.0545,278.5302,81.5384,-0.00021258,-2.628e-05,0.0,0 STARLINK-5607,1 55404U 23014P   24014.59947419 -.00002628  00000-0 -21258-3 0  9998,2 55404  69.9959 244.0545 0004173 278.5302  81.5384 14.98314771 54455,6950.24,96.108,575.005,569.205,0.0
55404.0,STARLINK-5607,PAYLOAD,2024-01-14 19:11:37,14.98329752,0.0002624,70.0001,243.5566,257.8697,102.2168,-8.4537e-05,-1.101e-05,0.0,0 STARLINK-5607,1 55404U 23014P   24014.79974292 -.00001101  00000-0 -84537-4 0  9994,2 55404  70.0001 243.5566 0002624 257.8697 102.2168 14.98329752 53544,6950.194,96.107,573.882,570.235,0.0
55404.0,STARLINK-5607,PAYLOAD,2024-01-14 22:23:53,14.98332506,0.0002379,70.0003,243.2191,248.7411,111.3494,-3.3146e-05,-4.88e-06,0.0,0 STARLINK-5607,1 55404U 23014P   24014.93325899 -.00000488  00000-0 -33146-4 0  9990,2 55404  70.0003 243.2191 0002379 248.7411 111.3494 14.98332506 54508,6950.185,96.107,573.704,570.397,0.0
55404.0,STARLINK-5607,PAYLOAD,2024-01-15 01:36:09,14.98332085,0.0002409,70.0002,242.8825,261.3923,98.6964,8.9993e-06,1.4e-07,0.0,0 STARLINK-5607,1 55404U 23014P   24015.06677910  .00000014  00000-0  89993-5 0  9994,2 55404  70.0002 242.8825 0002409 261.3923  98.6964 14.98332085 54522,6950.186,96.107,573.726,570.377,0.0
55404.0,STARLINK-5607,PAYLOAD,2024-01-15 19:13:37,14.98323107,0.0002662,69.9991,241.0299,266.6826,93.4028,0.00053779,6.328e-05,0.0,0 STARLINK-5607,1 55404U 23014P   24015.80112736  .00006328  00000-0  53779-3 0  9991,2 55404  69.9991 241.0299 0002662 266.6826  93.4028 14.98323107 53699,6950.214,96.107,573.929,570.229,0.0
55404.0,STARLINK-5607,PAYLOAD,2024-01-15 20:49:45,14.98324556,0.0002705,69.9991,240.8618,267.0678,93.0172,0.00052642,6.193e-05,0.0,0 STARLINK-5607,1 55404U 23014P   24015.86788698  .00006193  00000-0  52642-3 0  9991,2 55404  69.9991 240.8618 0002705 267.0678  93.0172 14.98324556 54640,6950.21,96.107,573.955,570.195,0.0
55404.0,STARLINK-5607,PAYLOAD,2024-01-16 14:27:14,14.98339224,0.0002636,69.9989,239.0095,266.8137,93.2721,-3.4155e-05,-5.01e-06,0.0,0 STARLINK-5607,1 55404U 23014P   24016.60225362 -.00000501  00000-0 -34155-4 0  9997,2 55404  69.9989 239.0095 0002636 266.8137  93.2721 14.98339224 54758,6950.164,96.106,573.861,570.197,0.0
